LEMUR-2-ROUNDTRIPPER    
1 62711U 25009DG  26193.17602365  .00005299  00000+0  38583-3 0  9998
2 62711  97.7248 275.8230 0004375  70.1877 289.9820 15.04200239 81386
LEMUR-2-MYNAMEISJEFF    
1 62712U 25009DH  26193.77319299  .00005901  00000+0  42913-3 0  9998
2 62712  97.7301 276.8164 0003873 102.3756 257.7903 15.04200329 81475
LEMUR-2-LEIA-PHILIP     
1 63246U 25052AN  26193.66413877  .00000597  00000+0  56355-4 0  9996
2 63246  97.6812  85.1833 0005092 125.0201 235.1500 14.97389132 72485
LEMUR-2-LIA-MARTIN      
1 63248U 25052AQ  26193.65976375  .00002821  00000+0  24366-3 0  9992
2 63248  97.6876  85.6933 0005403  95.9905 264.1933 14.98017579 72492
LEMUR-2-DELOITTE-1      
1 63259U 25052BB  26193.70660405  .00002176  00000+0  19038-3 0  9997
2 63259  97.6883  86.0697 0002451  67.7345 292.4137 14.97770317 72517
LEMUR-2-EMERSONROSE     
1 63261U 25052BD  26193.65654723  .00002925  00000+0  24448-3 0  9993
2 63261  97.6886  86.6281 0002799  64.9335 295.2179 14.99276404 72552
LEMUR-2-MARACHE-FRAN    
1 63262U 25052BE  26193.68099203  .00001900  00000+0  15634-3 0  9992
2 63262  97.6849  87.0169 0004895 264.0208  96.0458 15.00306023 72587
LEMUR-2-THEFALCONER     
1 63264U 25052BG  26193.66988536  .00001283  00000+0  11487-3 0  9994
2 63264  97.6844  85.6273 0000412 354.5924   5.5293 14.97557464 72501
LEMUR-2-UNTITLED-SC     
1 63351U 25061A   26193.80604009  .00002357  00000+0  13437-3 0  9997
2 63351  97.5648 168.9854 0018988 171.1017 189.0554 15.13637834 71463
LEMUR-2-ESPERANZA       
1 63352U 25061B   26193.45102512  .00001604  00000+0  92370-4 0  9999
2 63352  97.5656 168.7323 0018543 171.5151 188.6398 15.13742340 71417
LEMUR-2-KREMPEL-BRO2    
1 63353U 25061C   26193.86727789  .00002243  00000+0  12612-3 0  9994
2 63353  97.5702 169.7120 0019727 163.0753 197.1141 15.14170420 71499
LEMUR-2-THERMORAPTOR    
1 63354U 25061D   26193.38539394  .00001775  00000+0  10034-3 0  9990
2 63354  97.5707 169.3131 0019467 163.5067 196.6802 15.14250775 71420
LEMUR-2-NEUROSPICY      
1 63355U 25061E   26193.81766057  .00002446  00000+0  13655-3 0  9995
2 63355  97.5634 169.3497 0017235 164.8604 195.3147 15.14371215 71495
LEMUR-2-TILLINFINITY    
1 63356U 25061F   26193.38069310  .00001829  00000+0  10135-3 0  9990
2 63356  97.5620 169.2233 0018787 155.1465 205.0676 15.14952784 71457
LEMUR-2-KREMPEL-BRO1    
1 63357U 25061G   26193.88585753  .00002402  00000+0  13262-3 0  9992
2 63357  97.5621 169.6347 0019420 154.8111 205.4072 15.14762625 71523
LEMUR-2-LANGER2SPACE    
1 63358U 25061H   26193.52108345  .00001797  00000+0  10110-3 0  9997
2 63358  97.5625 169.0758 0017136 164.2646 195.9121 15.14454541 71453
LEMUR-2-BALTO           
1 63395U 25052BH  26193.66543464  .00002854  00000+0  23213-3 0  9991
2 63395  97.6934  86.9871 0005235 338.2510  21.8491 15.00350179 72580
LEMUR-2-KRISH           
1 64561U 25135AK  26192.81705671  .00002656  00000+0  23930-3 0  9991
2 64561  97.7770 307.5283 0001627  96.8966 263.2441 14.96434298 57609
LEMUR-2-HUBBLE-4        
1 64565U 25135AP  26193.79653543  .00001136  00000+0  11277-3 0  9996
2 64565  97.7717 307.4051 0002486 168.7052 191.4224 14.93681491 57691
LEMUR-2-SEJONG-2        
1 64586U 25135BL  26193.84182539  .00002190  00000+0  19593-3 0  9997
2 64586  97.7704 308.6924 0003802 229.8380 130.2509 14.96901348 57784
LEMUR-2-HUBBLE-5        
1 64840U 25135BT  26193.80621837  .00001096  00000+0  10766-3 0  9992
2 64840  97.7738 308.0811 0004200 245.1864 114.8920 14.94209700 57735
LEMUR-2-KARENDARRELL    
1 64841U 25135BU  26193.79574535  .00004814  00000+0  38647-3 0  9992
2 64841  97.7709 309.9685 0012186 111.6941 248.5581 15.00479897 57853
LEMUR-2-LUCILLE-ROSE    
1 65403U 25135BV  26193.76918003  .00003766  00000+0  30337-3 0  9999
2 65403  97.7712 309.9783 0014619 196.4667 163.6083 15.00471753 52470
LEMUR-2-AFFIE-WAUWIE    
1 66295U 25248C   26193.42777828  .00012562  00000+0  45878-3 0  9995
2 66295  45.3911 338.1335 0008724 238.0839 121.9202 15.28172277 38452
OTTER SDM               
1 66678U 25276N   26193.72748370  .00003744  00000+0  17678-3 0  9993
2 66678  97.4208 266.7825 0004236 265.7199  94.3553 15.20039663 34297
LEMUR-2-STAS-GORBUK     
1 66686U 25276W   26193.74827235  .00003778  00000+0  18040-3 0  9993
2 66686  97.4243 266.8551 0003456 260.6907  99.3937 15.19644338 34296
LEMUR-2-TEODOR          
1 66768U 25276DG  26193.76974610  .00003610  00000+0  16439-3 0  9991
2 66768  97.4147 267.1448 0002281  89.7179 270.4318 15.21322077 34331
LEMUR-2-LAILA           
1 66776U 25276DQ  26193.73990767  .00003519  00000+0  15926-3 0  9996
2 66776  97.4170 267.2527 0002909  97.9400 262.2166 15.21547275 34339
LEMUR-2-CELIJO-SB-PK    
1 66781U 25276DW  26193.71712439  .00003290  00000+0  26718-3 0  9995
2 66781  97.5200 263.6519 0007109  70.2269 289.9721 15.00270997 26453
LEMUR-2-FINNIAN         
1 66782U 25276DX  26193.75464174  .00001734  00000+0  14177-3 0  9997
2 66782  97.5339 263.9508 0007886   9.8225 350.3152 15.00601115 23830
