OBJECT_NAME,OBJECT_ID,EPOCH,MEAN_MOTION,ECCENTRICITY,INCLINATION,RA_OF_ASC_NODE,ARG_OF_PERICENTER,MEAN_ANOMALY,EPHEMERIS_TYPE,CLASSIFICATION_TYPE,NORAD_CAT_ID,ELEMENT_SET_NO,REV_AT_EPOCH,BSTAR,MEAN_MOTION_DOT,MEAN_MOTION_DDOT
LEMUR-2-ROUNDTRIPPER,2025-009DG,2026-07-12T04:13:28.443360,15.04200239,.00043759,97.7248,275.8230,70.1877,289.9820,0,U,62711,999,8138,.3858306E-3,.5299E-4,0
LEMUR-2-MYNAMEISJEFF,2025-009DH,2026-07-12T18:33:23.874336,15.04200329,.0003873,97.7301,276.8164,102.3756,257.7903,0,U,62712,999,8147,.42913E-3,.5901E-4,0
LEMUR-2-LEIA-PHILIP,2025-052AN,2026-07-12T15:56:21.589728,14.97389132,.0005092,97.6812,85.1833,125.0201,235.1500,0,U,63246,999,7248,.56355E-4,.597E-5,0
LEMUR-2-LIA-MARTIN,2025-052AQ,2026-07-12T15:50:03.588000,14.98017579,.0005403,97.6876,85.6933,95.9905,264.1933,0,U,63248,999,7249,.24366E-3,.2821E-4,0
LEMUR-2-DELOITTE-1,2025-052BB,2026-07-12T16:57:30.589920,14.97770317,.0002451,97.6883,86.0697,67.7345,292.4137,0,U,63259,999,7251,.19038E-3,.2176E-4,0
LEMUR-2-EMERSONROSE,2025-052BD,2026-07-12T15:45:25.680672,14.99276404,.0002799,97.6886,86.6281,64.9335,295.2179,0,U,63261,999,7255,.24448E-3,.2925E-4,0
LEMUR-2-MARACHE-FRAN,2025-052BE,2026-07-12T16:20:37.711392,15.00306023,.0004895,97.6849,87.0169,264.0208,96.0458,0,U,63262,999,7258,.15634E-3,.19E-4,0
LEMUR-2-THEFALCONER,2025-052BG,2026-07-12T16:04:38.095104,14.97557464,.0000412,97.6844,85.6273,354.5924,5.5293,0,U,63264,999,7250,.11487E-3,.1283E-4,0
LEMUR-2-UNTITLED-SC,2025-061A,2026-07-12T19:20:41.863776,15.13637834,.0018988,97.5648,168.9854,171.1017,189.0554,0,U,63351,999,7146,.13437E-3,.2357E-4,0
LEMUR-2-ESPERANZA,2025-061B,2026-07-12T10:49:28.570368,15.13742340,.00185437,97.5656,168.7323,171.5151,188.6398,0,U,63352,999,7141,.92369652E-4,.1604E-4,0
LEMUR-2-KREMPEL-BRO2,2025-061C,2026-07-12T20:48:52.809696,15.14170420,.0019727,97.5702,169.7120,163.0753,197.1141,0,U,63353,999,7149,.12612E-3,.2243E-4,0
LEMUR-2-THERMORAPTOR,2025-061D,2026-07-12T09:14:58.036416,15.14250775,.00194676,97.5707,169.3131,163.5067,196.6802,0,U,63354,999,7142,.10034005E-3,.1775E-4,0
LEMUR-2-NEUROSPICY,2025-061E,2026-07-12T19:37:25.873248,15.14371215,.0017235,97.5634,169.3497,164.8604,195.3147,0,U,63355,999,7149,.13655E-3,.2446E-4,0
LEMUR-2-TILLINFINITY,2025-061F,2026-07-12T09:08:11.883840,15.14952784,.00187877,97.5620,169.2233,155.1465,205.0676,0,U,63356,999,7145,.1013545E-3,.1829E-4,0
LEMUR-2-KREMPEL-BRO1,2025-061G,2026-07-12T21:15:38.090592,15.14762625,.001942,97.5621,169.6347,154.8111,205.4072,0,U,63357,999,7152,.13262E-3,.2402E-4,0
LEMUR-2-LANGER2SPACE,2025-061H,2026-07-12T12:30:21.610080,15.14454541,.0017136,97.5625,169.0758,164.2646,195.9121,0,U,63358,999,7145,.1011E-3,.1797E-4,0
LEMUR-2-BALTO,2025-052BH,2026-07-12T15:58:13.552896,15.00350179,.0005235,97.6934,86.9871,338.2510,21.8491,0,U,63395,999,7258,.23213E-3,.2854E-4,0
LEMUR-2-KRISH,2025-135AK,2026-07-11T19:36:33.699744,14.96434298,.00016273,97.7770,307.5283,96.8966,263.2441,0,U,64561,999,5760,.23929928E-3,.2656E-4,0
LEMUR-2-HUBBLE-4,2025-135AP,2026-07-12T19:07:00.661152,14.93681491,.0002486,97.7717,307.4051,168.7052,191.4224,0,U,64565,999,5769,.11277E-3,.1136E-4,0
LEMUR-2-SEJONG-2,2025-135BL,2026-07-12T20:12:13.713696,14.96901348,.0003802,97.7704,308.6924,229.8380,130.2509,0,U,64586,999,5778,.19593E-3,.219E-4,0
LEMUR-2-HUBBLE-5,2025-135BT,2026-07-12T19:20:57.267168,14.94209700,.00042,97.7738,308.0811,245.1864,114.8920,0,U,64840,999,5773,.10766E-3,.1096E-4,0
LEMUR-2-KARENDARRELL,2025-135BU,2026-07-12T19:05:52.398240,15.00479897,.0012186,97.7709,309.9685,111.6941,248.5581,0,U,64841,999,5785,.38647E-3,.4814E-4,0
LEMUR-2-LUCILLE-ROSE,2025-135BV,2026-07-12T18:27:37.154592,15.00471753,.0014619,97.7712,309.9783,196.4667,163.6083,0,U,65403,999,5247,.30337E-3,.3766E-4,0
LEMUR-2-AFFIE-WAUWIE,2025-248C,2026-07-12T10:16:00.043392,15.28172277,.00087247,45.3911,338.1335,238.0839,121.9202,0,U,66295,999,3845,.45877995E-3,.12562E-3,0
OTTER SDM,2025-276N,2026-07-12T17:27:34.591680,15.20039663,.0004236,97.4208,266.7825,265.7199,94.3553,0,U,66678,999,3429,.17678E-3,.3744E-4,0
LEMUR-2-STAS-GORBUK,2025-276W,2026-07-12T17:57:30.731040,15.19644338,.0003456,97.4243,266.8551,260.6907,99.3937,0,U,66686,999,3429,.1804E-3,.3778E-4,0
LEMUR-2-TEODOR,2025-276DG,2026-07-12T18:28:26.063040,15.21322077,.0002281,97.4147,267.1448,89.7179,270.4318,0,U,66768,999,3433,.16439E-3,.361E-4,0
LEMUR-2-LAILA,2025-276DQ,2026-07-12T17:45:28.022688,15.21547275,.0002909,97.4170,267.2527,97.9400,262.2166,0,U,66776,999,3433,.15926E-3,.3519E-4,0
LEMUR-2-CELIJO-SB-PK,2025-276DW,2026-07-12T17:12:39.547296,15.00270997,.0007109,97.5200,263.6519,70.2269,289.9721,0,U,66781,999,2645,.26718E-3,.329E-4,0
LEMUR-2-FINNIAN,2025-276DX,2026-07-12T18:06:41.046336,15.00601115,.0007886,97.5339,263.9508,9.8225,350.3152,0,U,66782,999,2383,.14177E-3,.1734E-4,0
